{
  "type": "FeatureCollection",
  "name": "study_area",
  "crs": { "type": "name", "properties": { "name": "urn:ogc:def:crs:OGC:1.3:CRS84" } },
  "features": [
    {
      "type": "Feature",
      "properties": { "plot_id": "P001", "crop": "winter_wheat", "area_ha": 1.42 },
      "geometry": {
        "type": "Polygon",
        "coordinates": [[
          [116.1000, 36.3000], [116.1040, 36.3000],
          [116.1040, 36.3030], [116.1000, 36.3030],
          [116.1000, 36.3000]
        ]]
      }
    },
    {
      "type": "Feature",
      "properties": { "plot_id": "P002", "crop": "winter_wheat", "area_ha": 1.55 },
      "geometry": {
        "type": "Polygon",
        "coordinates": [[
          [116.1050, 36.3000], [116.1095, 36.3000],
          [116.1095, 36.3032], [116.1050, 36.3032],
          [116.1050, 36.3000]
        ]]
      }
    }
  ]
}
