{
  "type": "FeatureCollection",
  "name": "study_area_synthetic",
  "crs": {
    "type": "name",
    "properties": {
      "name": "urn:ogc:def:crs:OGC:1.3:CRS84"
    }
  },
  "features": [
    {
      "type": "Feature",
      "properties": {
        "plot_id": "P001",
        "crop": "winter_wheat",
        "area_ha": 3.45
      },
      "geometry": {
        "type": "Polygon",
        "coordinates": [
          [
            [
              116.1006,
              36.296299999999995
            ],
            [
              116.1026,
              36.296299999999995
            ],
            [
              116.1026,
              36.2983
            ],
            [
              116.1006,
              36.2983
            ],
            [
              116.1006,
              36.296299999999995
            ]
          ]
        ]
      }
    },
    {
      "type": "Feature",
      "properties": {
        "plot_id": "P002",
        "crop": "winter_wheat",
        "area_ha": 3.45
      },
      "geometry": {
        "type": "Polygon",
        "coordinates": [
          [
            [
              116.1032,
              36.296299999999995
            ],
            [
              116.1052,
              36.296299999999995
            ],
            [
              116.1052,
              36.2983
            ],
            [
              116.1032,
              36.2983
            ],
            [
              116.1032,
              36.296299999999995
            ]
          ]
        ]
      }
    },
    {
      "type": "Feature",
      "properties": {
        "plot_id": "P003",
        "crop": "winter_wheat",
        "area_ha": 3.45
      },
      "geometry": {
        "type": "Polygon",
        "coordinates": [
          [
            [
              116.1058,
              36.296299999999995
            ],
            [
              116.1078,
              36.296299999999995
            ],
            [
              116.1078,
              36.2983
            ],
            [
              116.1058,
              36.2983
            ],
            [
              116.1058,
              36.296299999999995
            ]
          ]
        ]
      }
    },
    {
      "type": "Feature",
      "properties": {
        "plot_id": "P004",
        "crop": "winter_wheat",
        "area_ha": 3.45
      },
      "geometry": {
        "type": "Polygon",
        "coordinates": [
          [
            [
              116.1006,
              36.298899999999996
            ],
            [
              116.1026,
              36.298899999999996
            ],
            [
              116.1026,
              36.3009
            ],
            [
              116.1006,
              36.3009
            ],
            [
              116.1006,
              36.298899999999996
            ]
          ]
        ]
      }
    },
    {
      "type": "Feature",
      "properties": {
        "plot_id": "P005",
        "crop": "winter_wheat",
        "area_ha": 3.45
      },
      "geometry": {
        "type": "Polygon",
        "coordinates": [
          [
            [
              116.1032,
              36.298899999999996
            ],
            [
              116.1052,
              36.298899999999996
            ],
            [
              116.1052,
              36.3009
            ],
            [
              116.1032,
              36.3009
            ],
            [
              116.1032,
              36.298899999999996
            ]
          ]
        ]
      }
    },
    {
      "type": "Feature",
      "properties": {
        "plot_id": "P006",
        "crop": "winter_wheat",
        "area_ha": 3.45
      },
      "geometry": {
        "type": "Polygon",
        "coordinates": [
          [
            [
              116.1058,
              36.298899999999996
            ],
            [
              116.1078,
              36.298899999999996
            ],
            [
              116.1078,
              36.3009
            ],
            [
              116.1058,
              36.3009
            ],
            [
              116.1058,
              36.298899999999996
            ]
          ]
        ]
      }
    },
    {
      "type": "Feature",
      "properties": {
        "plot_id": "P007",
        "crop": "winter_wheat",
        "area_ha": 3.45
      },
      "geometry": {
        "type": "Polygon",
        "coordinates": [
          [
            [
              116.1006,
              36.3015
            ],
            [
              116.1026,
              36.3015
            ],
            [
              116.1026,
              36.3035
            ],
            [
              116.1006,
              36.3035
            ],
            [
              116.1006,
              36.3015
            ]
          ]
        ]
      }
    },
    {
      "type": "Feature",
      "properties": {
        "plot_id": "P008",
        "crop": "winter_wheat",
        "area_ha": 3.45
      },
      "geometry": {
        "type": "Polygon",
        "coordinates": [
          [
            [
              116.1032,
              36.3015
            ],
            [
              116.1052,
              36.3015
            ],
            [
              116.1052,
              36.3035
            ],
            [
              116.1032,
              36.3035
            ],
            [
              116.1032,
              36.3015
            ]
          ]
        ]
      }
    },
    {
      "type": "Feature",
      "properties": {
        "plot_id": "P009",
        "crop": "winter_wheat",
        "area_ha": 3.45
      },
      "geometry": {
        "type": "Polygon",
        "coordinates": [
          [
            [
              116.1058,
              36.3015
            ],
            [
              116.1078,
              36.3015
            ],
            [
              116.1078,
              36.3035
            ],
            [
              116.1058,
              36.3035
            ],
            [
              116.1058,
              36.3015
            ]
          ]
        ]
      }
    },
    {
      "type": "Feature",
      "properties": {
        "plot_id": "P010",
        "crop": "winter_wheat",
        "area_ha": 3.45
      },
      "geometry": {
        "type": "Polygon",
        "coordinates": [
          [
            [
              116.1006,
              36.3041
            ],
            [
              116.1026,
              36.3041
            ],
            [
              116.1026,
              36.3061
            ],
            [
              116.1006,
              36.3061
            ],
            [
              116.1006,
              36.3041
            ]
          ]
        ]
      }
    },
    {
      "type": "Feature",
      "properties": {
        "plot_id": "P011",
        "crop": "winter_wheat",
        "area_ha": 3.45
      },
      "geometry": {
        "type": "Polygon",
        "coordinates": [
          [
            [
              116.1032,
              36.3041
            ],
            [
              116.1052,
              36.3041
            ],
            [
              116.1052,
              36.3061
            ],
            [
              116.1032,
              36.3061
            ],
            [
              116.1032,
              36.3041
            ]
          ]
        ]
      }
    },
    {
      "type": "Feature",
      "properties": {
        "plot_id": "P012",
        "crop": "winter_wheat",
        "area_ha": 3.45
      },
      "geometry": {
        "type": "Polygon",
        "coordinates": [
          [
            [
              116.1058,
              36.3041
            ],
            [
              116.1078,
              36.3041
            ],
            [
              116.1078,
              36.3061
            ],
            [
              116.1058,
              36.3061
            ],
            [
              116.1058,
              36.3041
            ]
          ]
        ]
      }
    }
  ]
}